{
  "type": "FeatureCollection",
  "features": [
    {
      "type": "Feature",
      "properties": {
        "norad_id": 66863,
        "name": "STARLINK-36134",
        "group": "last-30-days",
        "lat": -25.992587254132147,
        "lon": 69.62925413490191,
        "alt_km": 326.7197045178518,
        "timestamp": "2025-12-16T03:53:25.817514+00:00",
        "meta_object_name": "STARLINK-36134",
        "meta_object_id": "2025-281R",
        "meta_epoch": "2025-12-15T06:00:04.999968",
        "meta_mean_motion": 15.84506518,
        "meta_eccentricity": 0.00014372,
        "meta_inclination": 43.0007,
        "meta_ra_of_asc_node": 106.779,
        "meta_arg_of_pericenter": 271.6665,
        "meta_mean_anomaly": 243.985,
        "meta_ephemeris_type": 0,
        "meta_classification_type": "U",
        "meta_norad_cat_id": 66863,
        "meta_element_set_no": 999,
        "meta_rev_at_epoch": 180,
        "meta_bstar": -0.0066668865,
        "meta_mean_motion_dot": -0.01380375,
        "meta_mean_motion_ddot": 0,
        "tle_line1": "1 66863U 25281R   25349.25005787 -.01380375  00000+0 -66669-2 0  9997",
        "tle_line2": "2 66863  43.0007 106.7790 0001437 271.6665 243.9850 15.84506518  1806"
      },
      "geometry": {
        "type": "Point",
        "coordinates": [
          69.62925413490191,
          -25.992587254132147
        ]
      }
    },
    {
      "type": "Feature",
      "properties": {
        "norad_id": 66864,
        "name": "STARLINK-36070",
        "group": "last-30-days",
        "lat": -24.530097123495974,
        "lon": 71.84852181255029,
        "alt_km": 326.7726210149722,
        "timestamp": "2025-12-16T03:53:25.817524+00:00",
        "meta_object_name": "STARLINK-36070",
        "meta_object_id": "2025-281S",
        "meta_epoch": "2025-12-15T06:00:04.999968",
        "meta_mean_motion": 15.84474562,
        "meta_eccentricity": 0.00014665,
        "meta_inclination": 43.0007,
        "meta_ra_of_asc_node": 106.772,
        "meta_arg_of_pericenter": 271.2379,
        "meta_mean_anomaly": 247.0304,
        "meta_ephemeris_type": 0,
        "meta_classification_type": "U",
        "meta_norad_cat_id": 66864,
        "meta_element_set_no": 999,
        "meta_rev_at_epoch": 183,
        "meta_bstar": -0.0067111664,
        "meta_mean_motion_dot": -0.01386495,
        "meta_mean_motion_ddot": 0,
        "tle_line1": "1 66864U 25281S   25349.25005787 -.01386495  00000+0 -67112-2 0  9991",
        "tle_line2": "2 66864  43.0007 106.7720 0001466 271.2379 247.0304 15.84474562  1835"
      },
      "geometry": {
        "type": "Point",
        "coordinates": [
          71.84852181255029,
          -24.530097123495974
        ]
      }
    },
    {
      "type": "Feature",
      "properties": {
        "norad_id": 66865,
        "name": "STARLINK-36117",
        "group": "last-30-days",
        "lat": -21.322340237014053,
        "lon": 76.39495114363167,
        "alt_km": 327.0331835016732,
        "timestamp": "2025-12-16T03:53:25.817534+00:00",
        "meta_object_name": "STARLINK-36117",
        "meta_object_id": "2025-281T",
        "meta_epoch": "2025-12-15T06:00:04.999968",
        "meta_mean_motion": 15.8438847,
        "meta_eccentricity": 0.00014195,
        "meta_inclination": 43.0007,
        "meta_ra_of_asc_node": 106.7582,
        "meta_arg_of_pericenter": 268.7409,
        "meta_mean_anomaly": 255.1538,
        "meta_ephemeris_type": 0,
        "meta_classification_type": "U",
        "meta_norad_cat_id": 66865,
        "meta_element_set_no": 999,
        "meta_rev_at_epoch": 180,
        "meta_bstar": -0.0068267229,
        "meta_mean_motion_dot": -0.01429972,
        "meta_mean_motion_ddot": 0,
        "tle_line1": "1 66865U 25281T   25349.25005787 -.01429972  00000+0 -68267-2 0  9992",
        "tle_line2": "2 66865  43.0007 106.7582 0001419 268.7409 255.1538 15.84388470  1803"
      },
      "geometry": {
        "type": "Point",
        "coordinates": [
          76.39495114363167,
          -21.322340237014053
        ]
      }
    },
    {
      "type": "Feature",
      "properties": {
        "norad_id": 66866,
        "name": "STARLINK-36126",
        "group": "last-30-days",
        "lat": -19.854541074618226,
        "lon": 78.35327030046427,
        "alt_km": 326.9663721592542,
        "timestamp": "2025-12-16T03:53:25.817547+00:00",
        "meta_object_name": "STARLINK-36126",
        "meta_object_id": "2025-281U",
        "meta_epoch": "2025-12-15T06:00:04.999968",
        "meta_mean_motion": 15.84367255,
        "meta_eccentricity": 0.00013778,
        "meta_inclination": 43.0004,
        "meta_ra_of_asc_node": 106.7521,
        "meta_arg_of_pericenter": 273.2746,
        "meta_mean_anomaly": 253.0776,
        "meta_ephemeris_type": 0,
        "meta_classification_type": "U",
        "meta_norad_cat_id": 66866,
        "meta_element_set_no": 999,
        "meta_rev_at_epoch": 183,
        "meta_bstar": -0.0068832233,
        "meta_mean_motion_dot": -0.01439137,
        "meta_mean_motion_ddot": 0,
        "tle_line1": "1 66866U 25281U   25349.25005787 -.01439137  00000+0 -68832-2 0  9995",
        "tle_line2": "2 66866  43.0004 106.7521 0001377 273.2746 253.0776 15.84367255  1834"
      },
      "geometry": {
        "type": "Point",
        "coordinates": [
          78.35327030046427,
          -19.854541074618226
        ]
      }
    },
    {
      "type": "Feature",
      "properties": {
        "norad_id": 66867,
        "name": "STARLINK-36101",
        "group": "last-30-days",
        "lat": -18.059262540507135,
        "lon": 80.66404960700872,
        "alt_km": 327.1600508853571,
        "timestamp": "2025-12-16T03:53:25.817557+00:00",
        "meta_object_name": "STARLINK-36101",
        "meta_object_id": "2025-281V",
        "meta_epoch": "2025-12-15T06:00:04.999968",
        "meta_mean_motion": 15.84309858,
        "meta_eccentricity": 0.00012514,
        "meta_inclination": 43.0008,
        "meta_ra_of_asc_node": 106.7443,
        "meta_arg_of_pericenter": 272.927,
        "meta_mean_anomaly": 256.4972,
        "meta_ephemeris_type": 0,
        "meta_classification_type": "U",
        "meta_norad_cat_id": 66867,
        "meta_element_set_no": 999,
        "meta_rev_at_epoch": 164,
        "meta_bstar": -0.006975251,
        "meta_mean_motion_dot": -0.0145252,
        "meta_mean_motion_ddot": 0,
        "tle_line1": "1 66867U 25281V   25349.25005787 -.01452520  00000+0 -69753-2 0  9990",
        "tle_line2": "2 66867  43.0008 106.7443 0001251 272.9270 256.4972 15.84309858  1640"
      },
      "geometry": {
        "type": "Point",
        "coordinates": [
          80.66404960700872,
          -18.059262540507135
        ]
      }
    },
    {
      "type": "Feature",
      "properties": {
        "norad_id": 66868,
        "name": "STARLINK-36108",
        "group": "last-30-days",
        "lat": -16.14808983759643,
        "lon": 83.03535634747088,
        "alt_km": 327.36977647736785,
        "timestamp": "2025-12-16T03:53:25.817569+00:00",
        "meta_object_name": "STARLINK-36108",
        "meta_object_id": "2025-281W",
        "meta_epoch": "2025-12-15T06:00:04.999968",
        "meta_mean_motion": 15.84237083,
        "meta_eccentricity": 0.00013354,
        "meta_inclination": 43.0006,
        "meta_ra_of_asc_node": 106.7359,
        "meta_arg_of_pericenter": 269.0906,
        "meta_mean_anomaly": 263.5806,
        "meta_ephemeris_type": 0,
        "meta_classification_type": "U",
        "meta_norad_cat_id": 66868,
        "meta_element_set_no": 999,
        "meta_rev_at_epoch": 164,
        "meta_bstar": -0.0070586394,
        "meta_mean_motion_dot": -0.01463378,
        "meta_mean_motion_ddot": 0,
        "tle_line1": "1 66868U 25281W   25349.25005787 -.01463378  00000+0 -70586-2 0  9990",
        "tle_line2": "2 66868  43.0006 106.7359 0001335 269.0906 263.5806 15.84237083  1646"
      },
      "geometry": {
        "type": "Point",
        "coordinates": [
          83.03535634747088,
          -16.14808983759643
        ]
      }
    },
    {
      "type": "Feature",
      "properties": {
        "norad_id": 66869,
        "name": "STARLINK-36092",
        "group": "last-30-days",
        "lat": -14.512445232220879,
        "lon": 85.00390697180018,
        "alt_km": 327.28626719231124,
        "timestamp": "2025-12-16T03:53:25.817579+00:00",
        "meta_object_name": "STARLINK-36092",
        "meta_object_id": "2025-281X",
        "meta_epoch": "2025-12-15T06:00:04.999968",
        "meta_mean_motion": 15.84204328,
        "meta_eccentricity": 0.00014199,
        "meta_inclination": 43.0006,
        "meta_ra_of_asc_node": 106.7292,
        "meta_arg_of_pericenter": 272.3377,
        "meta_mean_anomaly": 262.9873,
        "meta_ephemeris_type": 0,
        "meta_classification_type": "U",
        "meta_norad_cat_id": 66869,
        "meta_element_set_no": 999,
        "meta_rev_at_epoch": 183,
        "meta_bstar": -0.0071236908,
        "meta_mean_motion_dot": -0.014733,
        "meta_mean_motion_ddot": 0,
        "tle_line1": "1 66869U 25281X   25349.25005787 -.01473300  00000+0 -71237-2 0  9991",
        "tle_line2": "2 66869  43.0006 106.7292 0001419 272.3377 262.9873 15.84204328  1839"
      },
      "geometry": {
        "type": "Point",
        "coordinates": [
          85.00390697180018,
          -14.512445232220879
        ]
      }
    }
  ]
}